IRIDIUM 159             
1 43578U 18061K   25232.57368648  .00000064  00000+0  15872-4 0  9990
2 43578  86.4026 182.3192 0002354  80.1185 280.0276 14.34217923370290
IRIDIUM 180             
1 43922U 19002A   25232.43364481  .00000014  00000+0 -21799-5 0  9997
2 43922  86.3972 119.3527 0001922  83.3361 276.8054 14.34217653345889
IRIDIUM 176             
1 43923U 19002B   25232.40189237  .00000747  00000+0  11450-3 0  9992
2 43923  86.6096 119.3532 0001919 100.9908 259.1525 14.72256856354994
IRIDIUM 168             
1 43924U 19002C   25232.42730255  .00000060  00000+0  14277-4 0  9996
2 43924  86.3975 119.4247 0002130  84.8429 275.3010 14.34217824345861
IRIDIUM 173             
1 43925U 19002D   25232.20531149  .00000057  00000+0  13448-4 0  9999
2 43925  86.3971 119.4185 0001935  85.5206 274.6211 14.34217754345814
IRIDIUM 169             
1 43926U 19002E   25232.49308984  .00000269  00000+0  81552-4 0  9996
2 43926  86.4285 150.8994 0001466 120.3552 239.7791 14.38610043346999
IRIDIUM 172             
1 43927U 19002F   25232.61757713  .00000209  00000+0  67472-4 0  9998
2 43927  86.3971 119.2532 0002094  77.3222 282.8208 14.34218878345886
IRIDIUM 175             
1 43928U 19002G   25232.60086964  .00000280  00000+0  40491-4 0  9992
2 43928  86.1451  68.0987 0002909 102.9511 257.2030 14.72243778355018
